IRIDIUM 106             
1 41917U 17003A   23280.70821862  .00000510  00000+0  17490-3 0  9991
2 41917  86.3974 139.5707 0001907  86.8851 273.2563 14.34218647352240
IRIDIUM 103             
1 41918U 17003B   23280.90483922 -.00000052  00000+0 -25558-4 0  9993
2 41918  86.3977 139.3909 0002007  76.1903 283.9516 14.34218104352297
IRIDIUM 109             
1 41919U 17003C   23280.91118676  .00000114  00000+0  33527-4 0  9998
2 41919  86.3974 139.4317 0002347  85.8559 274.2905 14.34219370352280
IRIDIUM 102             
1 41920U 17003D   23280.87947005 -.00000479  00000+0 -17811-3 0  9994
2 41920  86.3975 139.3894 0002181  85.1071 275.0373 14.34217330352349
IRIDIUM 105             
1 41921U 17003E   23280.91992093  .00000242  00000+0  79307-4 0  9992
2 41921  86.3920 107.7902 0002076  86.1012 274.0421 14.34225085354204
IRIDIUM 104             
1 41922U 17003F   23280.68284904 -.00000194  00000+0 -76251-4 0  9995
2 41922  86.3976 139.4989 0002067  80.6949 279.4481 14.34217891352301
IRIDIUM 114             
1 41923U 17003G   23280.89848885  .00000008  00000+0 -41210-5 0  9994
2 41923  86.3977 139.3957 0001767  93.2236 266.9162 14.34215979352315
IRIDIUM 108             
1 41924U 17003H   23280.92679157  .00000237  00000+0  77395-4 0  9998
2 41924  86.3914 107.7286 0001820  87.1631 272.9773 14.34219262354172
